{
  "type": "FeatureCollection",
  "features": [
    {
      "type": "Feature",
      "properties": {
        "norad_id": 30004,
        "name": "FENGYUN 1C DEB",
        "group": "fengyun-1c-debris",
        "lat": -50.74853211547133,
        "lon": -10.951681651736582,
        "alt_km": 835.5718511911227,
        "timestamp": "2025-12-24T22:42:22.304300+00:00",
        "meta_object_name": "FENGYUN 1C DEB",
        "meta_object_id": "1999-025MD",
        "meta_epoch": "2025-12-24T07:10:59.826720",
        "meta_mean_motion": 14.17091748,
        "meta_eccentricity": 0.00384664,
        "meta_inclination": 99.2237,
        "meta_ra_of_asc_node": 179.8487,
        "meta_arg_of_pericenter": 310.1167,
        "meta_mean_anomaly": 224.1259,
        "meta_ephemeris_type": 0,
        "meta_classification_type": "U",
        "meta_norad_cat_id": 30004,
        "meta_element_set_no": 999,
        "meta_rev_at_epoch": 97470,
        "meta_bstar": 0.00070078345,
        "meta_mean_motion_dot": 1.373e-05,
        "meta_mean_motion_ddot": 0,
        "tle_line1": "1 30004U 99025MD  25358.29930355  .00001373  00000+0  70078-3 0  9999",
        "tle_line2": "2 30004  99.2237 179.8487 0038466 310.1167 224.1259 14.17091748974705"
      },
      "geometry": {
        "type": "Point",
        "coordinates": [
          -10.951681651736582,
          -50.74853211547133
        ]
      }
    },
    {
      "type": "Feature",
      "properties": {
        "norad_id": 30005,
        "name": "FENGYUN 1C DEB",
        "group": "fengyun-1c-debris",
        "lat": 75.5218258345992,
        "lon": 179.56369655967245,
        "alt_km": 851.3675392770592,
        "timestamp": "2025-12-24T22:42:22.304311+00:00",
        "meta_object_name": "FENGYUN 1C DEB",
        "meta_object_id": "1999-025ME",
        "meta_epoch": "2025-12-22T20:31:01.253568",
        "meta_mean_motion": 13.52242976,
        "meta_eccentricity": 0.0347265,
        "meta_inclination": 99.303,
        "meta_ra_of_asc_node": 318.1949,
        "meta_arg_of_pericenter": 67.8082,
        "meta_mean_anomaly": 295.9515,
        "meta_ephemeris_type": 0,
        "meta_classification_type": "U",
        "meta_norad_cat_id": 30005,
        "meta_element_set_no": 999,
        "meta_rev_at_epoch": 93083,
        "meta_bstar": 0.0013967,
        "meta_mean_motion_dot": 1.307e-05,
        "meta_mean_motion_ddot": 0,
        "tle_line1": "1 30005U 99025ME  25356.85487562  .00001307  00000+0  13967-2 0  9997",
        "tle_line2": "2 30005  99.3030 318.1949 0347265  67.8082 295.9515 13.52242976930837"
      },
      "geometry": {
        "type": "Point",
        "coordinates": [
          179.56369655967245,
          75.5218258345992
        ]
      }
    },
    {
      "type": "Feature",
      "properties": {
        "norad_id": 30007,
        "name": "FENGYUN 1C DEB",
        "group": "fengyun-1c-debris",
        "lat": -62.12398924790925,
        "lon": -81.34321274053713,
        "alt_km": 780.073853131661,
        "timestamp": "2025-12-24T22:42:22.304321+00:00",
        "meta_object_name": "FENGYUN 1C DEB",
        "meta_object_id": "1999-025MG",
        "meta_epoch": "2025-12-24T05:11:19.801824",
        "meta_mean_motion": 14.25508382,
        "meta_eccentricity": 0.0065303,
        "meta_inclination": 99.1782,
        "meta_ra_of_asc_node": 260.0951,
        "meta_arg_of_pericenter": 342.7324,
        "meta_mean_anomaly": 170.6902,
        "meta_ephemeris_type": 0,
        "meta_classification_type": "U",
        "meta_norad_cat_id": 30007,
        "meta_element_set_no": 999,
        "meta_rev_at_epoch": 97519,
        "meta_bstar": 0.0019285037,
        "meta_mean_motion_dot": 4.615e-05,
        "meta_mean_motion_ddot": 0,
        "tle_line1": "1 30007U 99025MG  25358.21620141  .00004615  00000+0  19285-2 0  9997",
        "tle_line2": "2 30007  99.1782 260.0951 0065303 342.7324 170.6902 14.25508382975197"
      },
      "geometry": {
        "type": "Point",
        "coordinates": [
          -81.34321274053713,
          -62.12398924790925
        ]
      }
    },
    {
      "type": "Feature",
      "properties": {
        "norad_id": 30008,
        "name": "FENGYUN 1C DEB",
        "group": "fengyun-1c-debris",
        "lat": -11.056104921979601,
        "lon": 135.1873734756637,
        "alt_km": 654.1405912696755,
        "timestamp": "2025-12-24T22:42:22.304331+00:00",
        "meta_object_name": "FENGYUN 1C DEB",
        "meta_object_id": "1999-025MH",
        "meta_epoch": "2025-12-24T03:52:33.574080",
        "meta_mean_motion": 14.66518249,
        "meta_eccentricity": 0.00395042,
        "meta_inclination": 99.3704,
        "meta_ra_of_asc_node": 316.1414,
        "meta_arg_of_pericenter": 156.4681,
        "meta_mean_anomaly": 214.4846,
        "meta_ephemeris_type": 0,
        "meta_classification_type": "U",
        "meta_norad_cat_id": 30008,
        "meta_element_set_no": 999,
        "meta_rev_at_epoch": 99227,
        "meta_bstar": 0.0020180036,
        "meta_mean_motion_dot": 0.00011272,
        "meta_mean_motion_ddot": 0,
        "tle_line1": "1 30008U 99025MH  25358.16149970  .00011272  00000+0  20180-2 0  9991",
        "tle_line2": "2 30008  99.3704 316.1414 0039504 156.4681 214.4846 14.66518249992271"
      },
      "geometry": {
        "type": "Point",
        "coordinates": [
          135.1873734756637,
          -11.056104921979601
        ]
      }
    },
    {
      "type": "Feature",
      "properties": {
        "norad_id": 30009,
        "name": "FENGYUN 1C DEB",
        "group": "fengyun-1c-debris",
        "lat": 67.78832078800572,
        "lon": 30.910759740080447,
        "alt_km": 899.6116904331102,
        "timestamp": "2025-12-24T22:42:22.304341+00:00",
        "meta_object_name": "FENGYUN 1C DEB",
        "meta_object_id": "1999-025MJ",
        "meta_epoch": "2025-12-24T03:34:26.241312",
        "meta_mean_motion": 14.04888302,
        "meta_eccentricity": 0.006441,
        "meta_inclination": 99.0143,
        "meta_ra_of_asc_node": 52.996,
        "meta_arg_of_pericenter": 302.696,
        "meta_mean_anomaly": 56.8007,
        "meta_ephemeris_type": 0,
        "meta_classification_type": "U",
        "meta_norad_cat_id": 30009,
        "meta_element_set_no": 999,
        "meta_rev_at_epoch": 96643,
        "meta_bstar": 0.00094962851,
        "meta_mean_motion_dot": 1.509e-05,
        "meta_mean_motion_ddot": 0,
        "tle_line1": "1 30009U 99025MJ  25358.14891483  .00001509  00000+0  94963-3 0  9996",
        "tle_line2": "2 30009  99.0143  52.9960 0064410 302.6960  56.8007 14.04888302966434"
      },
      "geometry": {
        "type": "Point",
        "coordinates": [
          30.910759740080447,
          67.78832078800572
        ]
      }
    },
    {
      "type": "Feature",
      "properties": {
        "norad_id": 30010,
        "name": "FENGYUN 1C DEB",
        "group": "fengyun-1c-debris",
        "lat": 61.280734517348456,
        "lon": 174.56133456738814,
        "alt_km": 821.4609144540345,
        "timestamp": "2025-12-24T22:42:22.304351+00:00",
        "meta_object_name": "FENGYUN 1C DEB",
        "meta_object_id": "1999-025MK",
        "meta_epoch": "2025-12-24T02:46:32.735424",
        "meta_mean_motion": 14.24994587,
        "meta_eccentricity": 0.00731775,
        "meta_inclination": 99.0695,
        "meta_ra_of_asc_node": 190.6526,
        "meta_arg_of_pericenter": 176.5833,
        "meta_mean_anomaly": 309.1539,
        "meta_ephemeris_type": 0,
        "meta_classification_type": "U",
        "meta_norad_cat_id": 30010,
        "meta_element_set_no": 999,
        "meta_rev_at_epoch": 98422,
        "meta_bstar": 0.00011902024,
        "meta_mean_motion_dot": 2.39e-06,
        "meta_mean_motion_ddot": 0,
        "tle_line1": "1 30010U 99025MK  25358.11565666  .00000239  00000+0  11902-3 0  9997",
        "tle_line2": "2 30010  99.0695 190.6526 0073177 176.5833 309.1539 14.24994587984229"
      },
      "geometry": {
        "type": "Point",
        "coordinates": [
          174.56133456738814,
          61.280734517348456
        ]
      }
    },
    {
      "type": "Feature",
      "properties": {
        "norad_id": 30012,
        "name": "FENGYUN 1C DEB",
        "group": "fengyun-1c-debris",
        "lat": 79.22528912221188,
        "lon": -66.49493981284786,
        "alt_km": 840.4779553874832,
        "timestamp": "2025-12-24T22:42:22.304362+00:00",
        "meta_object_name": "FENGYUN 1C DEB",
        "meta_object_id": "1999-025MM",
        "meta_epoch": "2025-12-24T03:27:28.524096",
        "meta_mean_motion": 13.85773382,
        "meta_eccentricity": 0.0137226,
        "meta_inclination": 99.4626,
        "meta_ra_of_asc_node": 51.4885,
        "meta_arg_of_pericenter": 115.4896,
        "meta_mean_anomaly": 301.2239,
        "meta_ephemeris_type": 0,
        "meta_classification_type": "U",
        "meta_norad_cat_id": 30012,
        "meta_element_set_no": 999,
        "meta_rev_at_epoch": 95706,
        "meta_bstar": 0.00027311137,
        "meta_mean_motion_dot": 2.92e-06,
        "meta_mean_motion_ddot": 0,
        "tle_line1": "1 30012U 99025MM  25358.14408014  .00000292  00000+0  27311-3 0  9995",
        "tle_line2": "2 30012  99.4626  51.4885 0137226 115.4896 301.2239 13.85773382957064"
      },
      "geometry": {
        "type": "Point",
        "coordinates": [
          -66.49493981284786,
          79.22528912221188
        ]
      }
    }
  ]
}